[{"OBJECT_NAME":"HORUS 1","OBJECT_ID":"2023-025A","EPOCH":"2026-03-09T23:16:57.631008","MEAN_MOTION":15.23575294,"ECCENTRICITY":0.00030668,"INCLINATION":97.3529,"RA_OF_ASC_NODE":145.6167,"ARG_OF_PERICENTER":124.3269,"MEAN_ANOMALY":235.8259,"EPHEMERIS_TYPE":0,"CLASSIFICATION_TYPE":"U","NORAD_CAT_ID":55690,"ELEMENT_SET_NO":999,"REV_AT_EPOCH":16894,"BSTAR":0.00035630129,"MEAN_MOTION_DOT":8.456e-5,"MEAN_MOTION_DDOT":0},{"OBJECT_NAME":"OBJECT AS","OBJECT_ID":"2025-313AS","EPOCH":"2026-03-09T21:37:48.750816","MEAN_MOTION":15.22046455,"ECCENTRICITY":0.00110673,"INCLINATION":97.3991,"RA_OF_ASC_NODE":145.2294,"ARG_OF_PERICENTER":345.8413,"MEAN_ANOMALY":14.2511,"EPHEMERIS_TYPE":0,"CLASSIFICATION_TYPE":"U","NORAD_CAT_ID":67288,"ELEMENT_SET_NO":999,"REV_AT_EPOCH":1085,"BSTAR":0.00031771512,"MEAN_MOTION_DOT":7.207e-5,"MEAN_MOTION_DDOT":0}]
